{
    "links": {
        "self": "http://www.neowsapp.com/rest/v1/neo/3152323?api_key=iIulBulltgU6a56xZRHN4H3l9WmuAYTsLGpBGhQ2"
    },
    "id": "3152323",
    "neo_reference_id": "3152323",
    "name": "(2003 GP51)",
    "designation": "2003 GP51",
    "nasa_jpl_url": "http://ssd.jpl.nasa.gov/sbdb.cgi?sstr=3152323",
    "absolute_magnitude_h": 22.0,
    "estimated_diameter": {
        "kilometers": {
            "estimated_diameter_min": 0.1058168859,
            "estimated_diameter_max": 0.2366137501
        },
        "meters": {
            "estimated_diameter_min": 105.8168859331,
            "estimated_diameter_max": 236.6137501138
        },
        "miles": {
            "estimated_diameter_min": 0.0657515442,
            "estimated_diameter_max": 0.1470249225
        },
        "feet": {
            "estimated_diameter_min": 347.1682720448,
            "estimated_diameter_max": 776.2918559233
        }
    },
    "is_potentially_hazardous_asteroid": true,
    "close_approach_data": [
        {
            "close_approach_date": "2003-04-02",
            "close_approach_date_full": "2003-Apr-02 00:46",
            "epoch_date_close_approach": 1049244360000,
            "relative_velocity": {
                "kilometers_per_second": "12.9544359238",
                "kilometers_per_hour": "46635.9693257711",
                "miles_per_hour": "28977.7777180048"
            },
            "miss_distance": {
                "astronomical": "0.0393065286",
                "lunar": "15.2902396254",
                "kilometers": "5880172.955654082",
                "miles": "3653770.0470750516"
            },
            "orbiting_body": "Earth"
        }
    ],
    "orbital_data": {
        "orbit_id": "16",
        "orbit_determination_date": "2017-04-06 09:14:09",
        "first_observation_date": "2003-04-14",
        "last_observation_date": "2003-05-05",
        "data_arc_in_days": 21,
        "observations_used": 53,
        "orbit_uncertainty": "8",
        "minimum_orbit_intersection": ".0374331",
        "jupiter_tisserand_invariant": "3.445",
        "epoch_osculation": "2452751.5",
        "eccentricity": ".6019877773589212",
        "semi_major_axis": "2.150911353869964",
        "inclination": "2.855172028433905",
        "ascending_node_longitude": "141.8946509381002",
        "orbital_period": "1152.211471950168",
        "perihelion_distance": ".8560890086577164",
        "perihelion_argument": "357.5076036155873",
        "aphelion_distance": "3.445733699082212",
        "perihelion_time": "2452694.879651713884",
        "mean_anomaly": "17.69061138447277",
        "mean_motion": ".3124426450907354",
        "equinox": "J2000",
        "orbit_class": {
            "orbit_class_type": "APO",
            "orbit_class_description": "Near-Earth asteroid orbits which cross the Earth’s orbit similar to that of 1862 Apollo",
            "orbit_class_range": "a (semi-major axis) > 1.0 AU; q (perihelion) < 1.017 AU"
        }
    },
    "is_sentry_object": false
}